start=new Date('2022-09-22T00:00:00.000Z').valueOf();
sats=[{"MEAN_MOTION_DDOT":"0.0000000000000","TLE_LINE1":"1 45745U 20038R   22264.82972825  .00000612  00000-0  60002-4 0  9998","REV_AT_EPOCH":"12554","ECCENTRICITY":"0.00014270","APOAPSIS":"548.219","LAUNCH_DATE":"2020-06-13","PERIOD":"95.593","EPOCH":"2022-09-21T19:54:48.520800","COUNTRY_CODE":"US","INCLINATION":"53.0558","SEMIMAJOR_AXIS":"6925.366","MEAN_ANOMALY":"268.5658","MEAN_ELEMENT_THEORY":"SGP4","FILE":"3579752","NORAD_CAT_ID":"45745","MEAN_MOTION":"15.06394322","MEAN_MOTION_DOT":"0.00000612","CENTER_NAME":"EARTH","RA_OF_ASC_NODE":"154.7953","EPHEMERIS_TYPE":"0","REF_FRAME":"TEME","ARG_OF_PERICENTER":"91.5495","BSTAR":"0.00006000200000","GP_ID":"213189056","OBJECT_ID":"2020-038R","DECAY_DATE":null,"CLASSIFICATION_TYPE":"U","OBJECT_NAME":"STARLINK-1503","PERIAPSIS":"546.243","OBJECT_TYPE":"PAYLOAD","RCS_SIZE":"LARGE","TIME_SYSTEM":"UTC","SITE":"AFETR","ELEMENT_SET_NO":"999","TLE_LINE2":"2 45745  53.0558 154.7953 0001427  91.5495 268.5658 15.06394322125546"},{"GP_ID":"213187812","OBJECT_ID":"2020-038S","ARG_OF_PERICENTER":"92.0485","BSTAR":"0.00008258200000","CLASSIFICATION_TYPE":"U","DECAY_DATE":null,"OBJECT_NAME":"STARLINK-1504","PERIAPSIS":"546.287","OBJECT_TYPE":"PAYLOAD","RCS_SIZE":"LARGE","SITE":"AFETR","TIME_SYSTEM":"UTC","ELEMENT_SET_NO":"999","TLE_LINE2":"2 45746  53.0550 158.6139 0001327  92.0485 268.0656 15.06402623125415","REV_AT_EPOCH":"12541","TLE_LINE1":"1 45746U 20038S   22263.98195416  .00000949  00000-0  82582-4 0  9998","ECCENTRICITY":"0.00013270","MEAN_MOTION_DDOT":"0.0000000000000","APOAPSIS":"548.125","PERIOD":"95.592","EPOCH":"2022-09-20T23:34:00.839424","LAUNCH_DATE":"2020-06-13","SEMIMAJOR_AXIS":"6925.341","MEAN_ANOMALY":"268.0656","MEAN_ELEMENT_THEORY":"SGP4","COUNTRY_CODE":"US","INCLINATION":"53.0550","CENTER_NAME":"EARTH","MEAN_MOTION_DOT":"0.00000949","RA_OF_ASC_NODE":"158.6139","MEAN_MOTION":"15.06402623","FILE":"3579752","NORAD_CAT_ID":"45746","REF_FRAME":"TEME","EPHEMERIS_TYPE":"0"},{"RCS_SIZE":"LARGE","OBJECT_TYPE":"PAYLOAD","TLE_LINE2":"2 45747  53.0552 157.9981 0001541  77.2824 282.8338 15.06405591125446","ELEMENT_SET_NO":"999","TIME_SYSTEM":"UTC","SITE":"AFETR","CLASSIFICATION_TYPE":"U","DECAY_DATE":null,"OBJECT_NAME":"STARLINK-1506","OBJECT_ID":"2020-038T","GP_ID":"213187562","BSTAR":"0.00000984100000","ARG_OF_PERICENTER":"77.2824","PERIAPSIS":"546.129","MEAN_ANOMALY":"282.8338","SEMIMAJOR_AXIS":"6925.331","MEAN_ELEMENT_THEORY":"SGP4","INCLINATION":"53.0552","COUNTRY_CODE":"US","EPOCH":"2022-09-21T02:50:24.379872","PERIOD":"95.592","LAUNCH_DATE":"2020-06-13","REF_FRAME":"TEME","EPHEMERIS_TYPE":"0","RA_OF_ASC_NODE":"157.9981","MEAN_MOTION_DOT":"-0.00000135","CENTER_NAME":"EARTH","NORAD_CAT_ID":"45747","FILE":"3579752","MEAN_MOTION":"15.06405591","APOAPSIS":"548.264","ECCENTRICITY":"0.00015410","REV_AT_EPOCH":"12544","TLE_LINE1":"1 45747U 20038T   22264.11833773 -.00000135  00000-0  98410-5 0  9996","MEAN_MOTION_DDOT":"0.0000000000000"},{"INCLINATION":"53.0542","COUNTRY_CODE":"US","MEAN_ELEMENT_THEORY":"SGP4","SEMIMAJOR_AXIS":"6925.323","MEAN_ANOMALY":"274.5958","LAUNCH_DATE":"2020-06-13","EPOCH":"2022-09-21T10:30:49.203072","PERIOD":"95.592","EPHEMERIS_TYPE":"0","REF_FRAME":"TEME","FILE":"3579752","NORAD_CAT_ID":"45748","MEAN_MOTION":"15.06408209","RA_OF_ASC_NODE":"156.5423","MEAN_MOTION_DOT":"0.00000745","CENTER_NAME":"EARTH","APOAPSIS":"548.012","MEAN_MOTION_DDOT":"0.0000000000000","ECCENTRICITY":"0.00011890","REV_AT_EPOCH":"12548","TLE_LINE1":"1 45748U 20038U   22264.43806948  .00000745  00000-0  68891-4 0  9991","RCS_SIZE":"LARGE","OBJECT_TYPE":"PAYLOAD","TLE_LINE2":"2 45748  53.0542 156.5423 0001189  85.5167 274.5958 15.06408209125481","ELEMENT_SET_NO":"999","TIME_SYSTEM":"UTC","SITE":"AFETR","CLASSIFICATION_TYPE":"U","DECAY_DATE":null,"OBJECT_NAME":"STARLINK-1507","BSTAR":"0.00006889100000","ARG_OF_PERICENTER":"85.5167","OBJECT_ID":"2020-038U","GP_ID":"213188814","PERIAPSIS":"546.365"},{"APOAPSIS":"548.095","ECCENTRICITY":"0.00012980","REV_AT_EPOCH":"12572","TLE_LINE1":"1 45750U 20038W   22264.06857539 -.00000200  00000-0  54446-5 0  9994","MEAN_MOTION_DDOT":"0.0000000000000","REF_FRAME":"TEME","EPHEMERIS_TYPE":"0","RA_OF_ASC_NODE":"138.2144","MEAN_MOTION_DOT":"-0.00000200","CENTER_NAME":"EARTH","FILE":"3579752","MEAN_MOTION":"15.06405542","NORAD_CAT_ID":"45750","MEAN_ANOMALY":"290.9308","SEMIMAJOR_AXIS":"6925.332","MEAN_ELEMENT_THEORY":"SGP4","INCLINATION":"53.0535","COUNTRY_CODE":"US","EPOCH":"2022-09-21T01:38:44.913696","PERIOD":"95.592","LAUNCH_DATE":"2020-06-13","PERIAPSIS":"546.298","OBJECT_NAME":"STARLINK-1391","DECAY_DATE":null,"CLASSIFICATION_TYPE":"U","OBJECT_ID":"2020-038W","GP_ID":"213188556","BSTAR":"0.00000544460000","ARG_OF_PERICENTER":"69.1820","TLE_LINE2":"2 45750  53.0535 138.2144 0001298  69.1820 290.9308 15.06405542125723","ELEMENT_SET_NO":"999","SITE":"AFETR","TIME_SYSTEM":"UTC","RCS_SIZE":"LARGE","OBJECT_TYPE":"PAYLOAD"},{"PERIAPSIS":"546.316","DECAY_DATE":null,"OBJECT_NAME":"STARLINK-1464","CLASSIFICATION_TYPE":"U","OBJECT_ID":"2020-038X","GP_ID":"213187313","BSTAR":"-0.00000414260000","ARG_OF_PERICENTER":"84.2218","TLE_LINE2":"2 45751  53.0545 138.2414 0001311  84.2218 275.8920 15.06396779125723","ELEMENT_SET_NO":"999","SITE":"AFETR","TIME_SYSTEM":"UTC","RCS_SIZE":"LARGE","OBJECT_TYPE":"PAYLOAD","APOAPSIS":"548.131","ECCENTRICITY":"0.00013110","TLE_LINE1":"1 45751U 20038X   22264.06489230 -.00000343  00000-0 -41426-5 0  9997","REV_AT_EPOCH":"12572","MEAN_MOTION_DDOT":"0.0000000000000","REF_FRAME":"TEME","EPHEMERIS_TYPE":"0","RA_OF_ASC_NODE":"138.2414","CENTER_NAME":"EARTH","MEAN_MOTION_DOT":"-0.00000343","FILE":"3579752","NORAD_CAT_ID":"45751","MEAN_MOTION":"15.06396779","SEMIMAJOR_AXIS":"6925.358","MEAN_ELEMENT_THEORY":"SGP4","MEAN_ANOMALY":"275.8920","INCLINATION":"53.0545","COUNTRY_CODE":"US","PERIOD":"95.592","EPOCH":"2022-09-21T01:33:26.694720","LAUNCH_DATE":"2020-06-13"},{"OBJECT_TYPE":"PAYLOAD","RCS_SIZE":"LARGE","TIME_SYSTEM":"UTC","SITE":"AFETR","ELEMENT_SET_NO":"999","TLE_LINE2":"2 45753  53.0522 134.6001 0001246  83.8562 276.2569 15.06397565125847","ARG_OF_PERICENTER":"83.8562","BSTAR":"0.00005584800000","GP_ID":"213188063","OBJECT_ID":"2020-038Z","DECAY_DATE":null,"CLASSIFICATION_TYPE":"U","OBJECT_NAME":"STARLINK-1476","PERIAPSIS":"546.358","LAUNCH_DATE":"2020-06-13","PERIOD":"95.592","EPOCH":"2022-09-21T20:55:50.428416","COUNTRY_CODE":"US","INCLINATION":"53.0522","MEAN_ANOMALY":"276.2569","SEMIMAJOR_AXIS":"6925.356","MEAN_ELEMENT_THEORY":"SGP4","FILE":"3579752","MEAN_MOTION":"15.06397565","NORAD_CAT_ID":"45753","MEAN_MOTION_DOT":"0.00000551","CENTER_NAME":"EARTH","RA_OF_ASC_NODE":"134.6001","EPHEMERIS_TYPE":"0","REF_FRAME":"TEME","MEAN_MOTION_DDOT":"0.0000000000000","TLE_LINE1":"1 45753U 20038Z   22264.87211144  .00000551  00000-0  55848-4 0  9996","REV_AT_EPOCH":"12584","ECCENTRICITY":"0.00012460","APOAPSIS":"548.084"},{"PERIAPSIS":"546.724","OBJECT_NAME":"STARLINK-1477","DECAY_DATE":null,"CLASSIFICATION_TYPE":"U","GP_ID":"213188314","OBJECT_ID":"2020-038AA","ARG_OF_PERICENTER":"55.6114","BSTAR":"-0.00014705000000","TLE_LINE2":"2 45754  53.0549 135.1861 0000737  55.6114 304.4944 15.06393134125828","SITE":"AFETR","TIME_SYSTEM":"UTC","ELEMENT_SET_NO":"999","RCS_SIZE":"LARGE","OBJECT_TYPE":"PAYLOAD","APOAPSIS":"547.745","TLE_LINE1":"1 45754U 20038AA  22264.74310268 -.00002470  00000-0 -14705-3 0  9990","REV_AT_EPOCH":"12582","ECCENTRICITY":"0.00007370","MEAN_MOTION_DDOT":"0.0000000000000","REF_FRAME":"TEME","EPHEMERIS_TYPE":"0","MEAN_MOTION_DOT":"-0.00002470","CENTER_NAME":"EARTH","RA_OF_ASC_NODE":"135.1861","FILE":"3579752","MEAN_MOTION":"15.06393134","NORAD_CAT_ID":"45754","SEMIMAJOR_AXIS":"6925.370","MEAN_ELEMENT_THEORY":"SGP4","MEAN_ANOMALY":"304.4944","COUNTRY_CODE":"US","INCLINATION":"53.0549","PERIOD":"95.593","EPOCH":"2022-09-21T17:50:04.071552","LAUNCH_DATE":"2020-06-13"},{"TLE_LINE1":"1 45755U 20038AB  22263.96537772 -.00001982  00000-0 -11420-3 0  9993","REV_AT_EPOCH":"12569","ECCENTRICITY":"0.00015320","MEAN_MOTION_DDOT":"0.0000000000000","APOAPSIS":"548.296","PERIOD":"95.593","EPOCH":"2022-09-20T23:10:08.635008","LAUNCH_DATE":"2020-06-13","MEAN_ELEMENT_THEORY":"SGP4","SEMIMAJOR_AXIS":"6925.370","MEAN_ANOMALY":"277.2861","COUNTRY_CODE":"US","INCLINATION":"53.0535","CENTER_NAME":"EARTH","MEAN_MOTION_DOT":"-0.00001982","RA_OF_ASC_NODE":"138.6687","FILE":"3579752","NORAD_CAT_ID":"45755","MEAN_MOTION":"15.06392920","REF_FRAME":"TEME","EPHEMERIS_TYPE":"0","GP_ID":"213189057","OBJECT_ID":"2020-038AB","ARG_OF_PERICENTER":"82.8303","BSTAR":"-0.00011420000000","CLASSIFICATION_TYPE":"U","DECAY_DATE":null,"OBJECT_NAME":"STARLINK-1478","PERIAPSIS":"546.174","OBJECT_TYPE":"PAYLOAD","RCS_SIZE":"LARGE","TIME_SYSTEM":"UTC","SITE":"AFETR","ELEMENT_SET_NO":"999","TLE_LINE2":"2 45755  53.0535 138.6687 0001532  82.8303 277.2861 15.06392920125696"},{"CENTER_NAME":"EARTH","MEAN_MOTION_DOT":"-0.00000639","RA_OF_ASC_NODE":"135.1209","FILE":"3579752","MEAN_MOTION":"15.06386988","NORAD_CAT_ID":"45756","REF_FRAME":"TEME","EPHEMERIS_TYPE":"0","PERIOD":"95.593","EPOCH":"2022-09-21T18:09:57.525984","LAUNCH_DATE":"2020-06-13","MEAN_ELEMENT_THEORY":"SGP4","SEMIMAJOR_AXIS":"6925.388","MEAN_ANOMALY":"285.0595","COUNTRY_CODE":"US","INCLINATION":"53.0542","TLE_LINE1":"1 45756U 20038AC  22264.75691581 -.00000639  00000-0 -24019-4 0  9998","REV_AT_EPOCH":"12581","ECCENTRICITY":"0.00012160","MEAN_MOTION_DDOT":"0.0000000000000","APOAPSIS":"548.096","SITE":"AFETR","TIME_SYSTEM":"UTC","ELEMENT_SET_NO":"999","TLE_LINE2":"2 45756  53.0542 135.1209 0001216  75.0528 285.0595 15.06386988125811","OBJECT_TYPE":"PAYLOAD","RCS_SIZE":"LARGE","PERIAPSIS":"546.411","GP_ID":"213187813","OBJECT_ID":"2020-038AC","ARG_OF_PERICENTER":"75.0528","BSTAR":"-0.00002401900000","OBJECT_NAME":"STARLINK-1484","DECAY_DATE":null,"CLASSIFICATION_TYPE":"U"}];
